ICEYE-X43               
1 60539U 24149BZ  26184.97622185  .00004211  00000+0  34552-3 0  9993
2 60539  97.6821 261.7151 0007497  32.9648 327.2041 14.99742023102632
ICEYE-X40               
1 60549U 24149CK  26184.80184710  .00002047  00000+0  17825-3 0  9992
2 60549  97.6799 261.0312 0005065  33.9431 326.2114 14.98000421102569
ICEYE-X49               
1 62384U 24247H   26185.26648535  .00005018  00000+0  28919-3 0  9998
2 62384  44.9960 266.1831 0000838 235.8586 124.2212 15.13547800 84763
ICEYE-X47               
1 62389U 24247N   26185.57161547  .00007676  00000+0  43597-3 0  9991
2 62389  44.9953 264.1401 0002295 307.2245  52.8423 15.13450507 84819
ICEYE-X42               
1 62698U 25009CT  26183.16410560  .00003318  00000+0  33406-3 0  9993
2 62698  97.7391 261.2085 0001368  98.3155 261.8219 14.91845411 79522
ICEYE-X41               
1 62700U 25009CV  26185.18394991  .00004435  00000+0  39166-3 0  9990
2 62700  97.7074 264.4636 0001328  40.1826 319.9494 14.96869688 79951
ICEYE-X45               
1 62705U 25009DA  26185.19722265  .00007904  00000+0  62604-3 0  9992
2 62705  97.8376 272.0212 0001272  82.6871 277.4497 15.00855111 80232
ICEYE-X44               
1 62707U 25009DC  26185.47511836  .00003716  00000+0  33532-3 0  9990
2 62707  97.7050 264.3284 0002393  86.3795 273.7700 14.96118480102524
ICEYE-X48               
1 63253U 25052AV  26185.42341045  .00003622  00000+0  31097-3 0  9993
2 63253  97.6842  77.3473 0002698 127.8988 232.2479 14.98082802 71252
ICEYE-X46               
1 63258U 25052BA  26185.41927044  .00001356  00000+0  12808-3 0  9997
2 63258  97.6870  76.9812 0001547  80.6872 279.4524 14.95332838 71225
