{
 "generated_at": "2026-07-05T07:57:19Z",
 "sources": [
  {
   "name": "CelesTrak",
   "url": "https://celestrak.org/NORAD/elements/",
   "license": "frei verfügbar; Attribution. Ursprünglich USSPACECOM/Space-Track."
  },
  {
   "name": "GCAT (J. McDowell, planet4589.org)",
   "url": "https://planet4589.org/space/gcat/",
   "license": "CC-BY 4.0"
  }
 ],
 "satellites": [
  {
   "norad": 60549,
   "name": "ICEYE-X40",
   "intl": "2024-149CK",
   "group": "sar",
   "gcat": {
    "class": "B",
    "category": "IMG-R",
    "owner": "ALYAH",
    "state": "UAE"
   },
   "omm": {
    "OBJECT_NAME": "ICEYE-X40",
    "OBJECT_ID": "2024-149CK",
    "EPOCH": "2026-07-03T19:14:39.589440",
    "MEAN_MOTION": 14.98000421,
    "ECCENTRICITY": 0.00050653,
    "INCLINATION": 97.6799,
    "RA_OF_ASC_NODE": 261.0312,
    "ARG_OF_PERICENTER": 33.9431,
    "MEAN_ANOMALY": 326.2114,
    "EPHEMERIS_TYPE": 0,
    "CLASSIFICATION_TYPE": "U",
    "NORAD_CAT_ID": 60549,
    "ELEMENT_SET_NO": 999,
    "REV_AT_EPOCH": 10256,
    "BSTAR": 0.00017825199,
    "MEAN_MOTION_DOT": 0.00002047,
    "MEAN_MOTION_DDOT": 0
   }
  },
  {
   "norad": 62700,
   "name": "ICEYE-X41",
   "intl": "2025-009CV",
   "group": "sar",
   "gcat": {
    "class": "B",
    "category": "IMG-R",
    "owner": "ICEUS",
    "state": "US"
   },
   "omm": {
    "OBJECT_NAME": "ICEYE-X41",
    "OBJECT_ID": "2025-009CV",
    "EPOCH": "2026-07-04T04:24:53.272224",
    "MEAN_MOTION": 14.96869688,
    "ECCENTRICITY": 0.00013285,
    "INCLINATION": 97.7074,
    "RA_OF_ASC_NODE": 264.4636,
    "ARG_OF_PERICENTER": 40.1826,
    "MEAN_ANOMALY": 319.9494,
    "EPHEMERIS_TYPE": 0,
    "CLASSIFICATION_TYPE": "U",
    "NORAD_CAT_ID": 62700,
    "ELEMENT_SET_NO": 999,
    "REV_AT_EPOCH": 7995,
    "BSTAR": 0.00039165919,
    "MEAN_MOTION_DOT": 0.00004435,
    "MEAN_MOTION_DDOT": 0
   }
  },
  {
   "norad": 62698,
   "name": "ICEYE-X42",
   "intl": "2025-009CT",
   "group": "sar",
   "gcat": {
    "class": "B",
    "category": "IMG-R",
    "owner": "SP42",
    "state": "UAE"
   },
   "omm": {
    "OBJECT_NAME": "ICEYE-X42",
    "OBJECT_ID": "2025-009CT",
    "EPOCH": "2026-07-02T03:56:18.723840",
    "MEAN_MOTION": 14.91845411,
    "ECCENTRICITY": 0.00013689,
    "INCLINATION": 97.7391,
    "RA_OF_ASC_NODE": 261.2085,
    "ARG_OF_PERICENTER": 98.3155,
    "MEAN_ANOMALY": 261.8219,
    "EPHEMERIS_TYPE": 0,
    "CLASSIFICATION_TYPE": "U",
    "NORAD_CAT_ID": 62698,
    "ELEMENT_SET_NO": 999,
    "REV_AT_EPOCH": 7952,
    "BSTAR": 0.00033406288,
    "MEAN_MOTION_DOT": 0.00003318,
    "MEAN_MOTION_DDOT": 0
   }
  },
  {
   "norad": 60539,
   "name": "ICEYE-X43",
   "intl": "2024-149BZ",
   "group": "sar",
   "gcat": {
    "class": "B",
    "category": "IMG-R",
    "owner": "FAB/ICEYE",
    "state": "BR"
   },
   "omm": {
    "OBJECT_NAME": "ICEYE-X43",
    "OBJECT_ID": "2024-149BZ",
    "EPOCH": "2026-07-03T23:25:45.567840",
    "MEAN_MOTION": 14.99742023,
    "ECCENTRICITY": 0.00074977,
    "INCLINATION": 97.6821,
    "RA_OF_ASC_NODE": 261.7151,
    "ARG_OF_PERICENTER": 32.9648,
    "MEAN_ANOMALY": 327.2041,
    "EPHEMERIS_TYPE": 0,
    "CLASSIFICATION_TYPE": "U",
    "NORAD_CAT_ID": 60539,
    "ELEMENT_SET_NO": 999,
    "REV_AT_EPOCH": 10263,
    "BSTAR": 0.00034551564,
    "MEAN_MOTION_DOT": 0.00004211,
    "MEAN_MOTION_DDOT": 0
   }
  },
  {
   "norad": 62707,
   "name": "ICEYE-X44",
   "intl": "2025-009DC",
   "group": "sar",
   "gcat": {
    "class": "B",
    "category": "IMG-R",
    "owner": "SP42",
    "state": "UAE"
   },
   "omm": {
    "OBJECT_NAME": "ICEYE-X44",
    "OBJECT_ID": "2025-009DC",
    "EPOCH": "2026-07-04T11:24:10.226304",
    "MEAN_MOTION": 14.9611848,
    "ECCENTRICITY": 0.00023934,
    "INCLINATION": 97.705,
    "RA_OF_ASC_NODE": 264.3284,
    "ARG_OF_PERICENTER": 86.3795,
    "MEAN_ANOMALY": 273.77,
    "EPHEMERIS_TYPE": 0,
    "CLASSIFICATION_TYPE": "U",
    "NORAD_CAT_ID": 62707,
    "ELEMENT_SET_NO": 999,
    "REV_AT_EPOCH": 10252,
    "BSTAR": 0.00033531989,
    "MEAN_MOTION_DOT": 0.00003716,
    "MEAN_MOTION_DDOT": 0
   }
  },
  {
   "norad": 62705,
   "name": "ICEYE-X45",
   "intl": "2025-009DA",
   "group": "sar",
   "gcat": {
    "class": "B",
    "category": "IMG-R",
    "owner": "ICEUS",
    "state": "US"
   },
   "omm": {
    "OBJECT_NAME": "ICEYE-X45",
    "OBJECT_ID": "2025-009DA",
    "EPOCH": "2026-07-04T04:44:00.036960",
    "MEAN_MOTION": 15.00855111,
    "ECCENTRICITY": 0.00012724,
    "INCLINATION": 97.8376,
    "RA_OF_ASC_NODE": 272.0212,
    "ARG_OF_PERICENTER": 82.6871,
    "MEAN_ANOMALY": 277.4497,
    "EPHEMERIS_TYPE": 0,
    "CLASSIFICATION_TYPE": "U",
    "NORAD_CAT_ID": 62705,
    "ELEMENT_SET_NO": 999,
    "REV_AT_EPOCH": 8023,
    "BSTAR": 0.00062604181,
    "MEAN_MOTION_DOT": 0.00007904,
    "MEAN_MOTION_DDOT": 0
   }
  },
  {
   "norad": 63258,
   "name": "ICEYE-X46",
   "intl": "2025-052BA",
   "group": "sar",
   "gcat": {
    "class": "B",
    "category": "IMG-R",
    "owner": "ICEYE",
    "state": "FI"
   },
   "omm": {
    "OBJECT_NAME": "ICEYE-X46",
    "OBJECT_ID": "2025-052BA",
    "EPOCH": "2026-07-04T10:03:44.966016",
    "MEAN_MOTION": 14.95332838,
    "ECCENTRICITY": 0.00015475,
    "INCLINATION": 97.687,
    "RA_OF_ASC_NODE": 76.9812,
    "ARG_OF_PERICENTER": 80.6872,
    "MEAN_ANOMALY": 279.4524,
    "EPHEMERIS_TYPE": 0,
    "CLASSIFICATION_TYPE": "U",
    "NORAD_CAT_ID": 63258,
    "ELEMENT_SET_NO": 999,
    "REV_AT_EPOCH": 7122,
    "BSTAR": 0.00012808348,
    "MEAN_MOTION_DOT": 0.00001356,
    "MEAN_MOTION_DDOT": 0
   }
  },
  {
   "norad": 62389,
   "name": "ICEYE-X47",
   "intl": "2024-247N",
   "group": "sar",
   "gcat": {
    "class": "B",
    "category": "IMG-R",
    "owner": "ICEYE",
    "state": "FI"
   },
   "omm": {
    "OBJECT_NAME": "ICEYE-X47",
    "OBJECT_ID": "2024-247N",
    "EPOCH": "2026-07-04T13:43:07.576608",
    "MEAN_MOTION": 15.13450507,
    "ECCENTRICITY": 0.00022956,
    "INCLINATION": 44.9953,
    "RA_OF_ASC_NODE": 264.1401,
    "ARG_OF_PERICENTER": 307.2245,
    "MEAN_ANOMALY": 52.8423,
    "EPHEMERIS_TYPE": 0,
    "CLASSIFICATION_TYPE": "U",
    "NORAD_CAT_ID": 62389,
    "ELEMENT_SET_NO": 999,
    "REV_AT_EPOCH": 8481,
    "BSTAR": 0.0004359671,
    "MEAN_MOTION_DOT": 0.00007676,
    "MEAN_MOTION_DDOT": 0
   }
  },
  {
   "norad": 63253,
   "name": "ICEYE-X48",
   "intl": "2025-052AV",
   "group": "sar",
   "gcat": {
    "class": "B",
    "category": "IMG-R",
    "owner": "ICEUS",
    "state": "US"
   },
   "omm": {
    "OBJECT_NAME": "ICEYE-X48",
    "OBJECT_ID": "2025-052AV",
    "EPOCH": "2026-07-04T10:09:42.662880",
    "MEAN_MOTION": 14.98082802,
    "ECCENTRICITY": 0.00026984,
    "INCLINATION": 97.6842,
    "RA_OF_ASC_NODE": 77.3473,
    "ARG_OF_PERICENTER": 127.8988,
    "MEAN_ANOMALY": 232.2479,
    "EPHEMERIS_TYPE": 0,
    "CLASSIFICATION_TYPE": "U",
    "NORAD_CAT_ID": 63253,
    "ELEMENT_SET_NO": 999,
    "REV_AT_EPOCH": 7125,
    "BSTAR": 0.00031096761,
    "MEAN_MOTION_DOT": 0.00003622,
    "MEAN_MOTION_DDOT": 0
   }
  },
  {
   "norad": 62384,
   "name": "ICEYE-X49",
   "intl": "2024-247H",
   "group": "sar",
   "gcat": {
    "class": "B",
    "category": "IMG-R",
    "owner": "ICEYE",
    "state": "FI"
   },
   "omm": {
    "OBJECT_NAME": "ICEYE-X49",
    "OBJECT_ID": "2024-247H",
    "EPOCH": "2026-07-04T06:23:44.334240",
    "MEAN_MOTION": 15.135478,
    "ECCENTRICITY": 0.00008382,
    "INCLINATION": 44.996,
    "RA_OF_ASC_NODE": 266.1831,
    "ARG_OF_PERICENTER": 235.8586,
    "MEAN_ANOMALY": 124.2212,
    "EPHEMERIS_TYPE": 0,
    "CLASSIFICATION_TYPE": "U",
    "NORAD_CAT_ID": 62384,
    "ELEMENT_SET_NO": 999,
    "REV_AT_EPOCH": 8476,
    "BSTAR": 0.00028919224,
    "MEAN_MOTION_DOT": 0.00005018,
    "MEAN_MOTION_DDOT": 0
   }
  }
 ]
}
